{
  "type": "FeatureCollection",
  "features": [
    {
      "type": "Feature",
      "properties": {
        "norad_id": 66174,
        "name": "HTV-X1",
        "group": "stations",
        "lat": -30.728428227639686,
        "lon": 110.29136746433637,
        "alt_km": 421.1707998976608,
        "timestamp": "2025-12-13T13:34:33.887412+00:00",
        "meta_object_name": "HTV-X1",
        "meta_object_id": "2025-241A",
        "meta_epoch": "2025-12-12T20:43:30.984384",
        "meta_mean_motion": 15.49550036,
        "meta_eccentricity": 0.00032451,
        "meta_inclination": 51.6304,
        "meta_ra_of_asc_node": 141.8664,
        "meta_arg_of_pericenter": 240.6311,
        "meta_mean_anomaly": 119.4354,
        "meta_ephemeris_type": 0,
        "meta_classification_type": "U",
        "meta_norad_cat_id": 66174,
        "meta_element_set_no": 999,
        "meta_rev_at_epoch": 51,
        "meta_bstar": 0.00025741225,
        "meta_mean_motion_dot": 0.00014033,
        "meta_mean_motion_ddot": 0,
        "tle_line1": "1 66174U 25241A   25346.86355306  .00014033  00000+0  25741-3 0  9996",
        "tle_line2": "2 66174  51.6304 141.8664 0003245 240.6311 119.4354 15.49550036   517"
      },
      "geometry": {
        "type": "Point",
        "coordinates": [
          110.29136746433637,
          -30.728428227639686
        ]
      }
    },
    {
      "type": "Feature",
      "properties": {
        "norad_id": 66515,
        "name": "SZ-21 MODULE",
        "group": "stations",
        "lat": 13.889015363309202,
        "lon": 27.261024836504046,
        "alt_km": 379.75075623886005,
        "timestamp": "2025-12-13T13:34:33.887422+00:00",
        "meta_object_name": "SZ-21 MODULE",
        "meta_object_id": "2025-246C",
        "meta_epoch": "2025-12-12T19:04:39.587232",
        "meta_mean_motion": 15.62483203,
        "meta_eccentricity": 0.00063063,
        "meta_inclination": 41.4775,
        "meta_ra_of_asc_node": 15.7097,
        "meta_arg_of_pericenter": 260.6775,
        "meta_mean_anomaly": 99.3351,
        "meta_ephemeris_type": 0,
        "meta_classification_type": "U",
        "meta_norad_cat_id": 66515,
        "meta_element_set_no": 999,
        "meta_rev_at_epoch": 445,
        "meta_bstar": 0.00036064759,
        "meta_mean_motion_dot": 0.00032837,
        "meta_mean_motion_ddot": 0,
        "tle_line1": "1 66515U 25246C   25346.79490263  .00032837  00000+0  36065-3 0  9997",
        "tle_line2": "2 66515  41.4775  15.7097 0006306 260.6775  99.3351 15.62483203  4457"
      },
      "geometry": {
        "type": "Point",
        "coordinates": [
          27.261024836504046,
          13.889015363309202
        ]
      }
    },
    {
      "type": "Feature",
      "properties": {
        "norad_id": 66645,
        "name": "SHENZHOU-22",
        "group": "stations",
        "lat": 40.13039559896351,
        "lon": 119.02926970003602,
        "alt_km": 381.13117438079735,
        "timestamp": "2025-12-13T13:34:33.887431+00:00",
        "meta_object_name": "SHENZHOU-22",
        "meta_object_id": "2025-272A",
        "meta_epoch": "2025-12-12T23:18:04.584096",
        "meta_mean_motion": 15.5917806,
        "meta_eccentricity": 0.00082454,
        "meta_inclination": 41.4684,
        "meta_ra_of_asc_node": 15.3046,
        "meta_arg_of_pericenter": 32.5257,
        "meta_mean_anomaly": 327.6088,
        "meta_ephemeris_type": 0,
        "meta_classification_type": "U",
        "meta_norad_cat_id": 66645,
        "meta_element_set_no": 999,
        "meta_rev_at_epoch": 26357,
        "meta_bstar": 0.00033032775,
        "meta_mean_motion_dot": 0.00026417,
        "meta_mean_motion_ddot": 0,
        "tle_line1": "1 66645U 25272A   25346.97088639  .00026417  00000+0  33033-3 0  9999",
        "tle_line2": "2 66645  41.4684  15.3046 0008245  32.5257 327.6088 15.59178060263577"
      },
      "geometry": {
        "type": "Point",
        "coordinates": [
          119.02926970003602,
          40.13039559896351
        ]
      }
    },
    {
      "type": "Feature",
      "properties": {
        "norad_id": 66664,
        "name": "SOYUZ-MS 28",
        "group": "stations",
        "lat": -30.728426977991273,
        "lon": 110.29136898165997,
        "alt_km": 421.1707998868824,
        "timestamp": "2025-12-13T13:34:33.887440+00:00",
        "meta_object_name": "SOYUZ-MS 28",
        "meta_object_id": "2025-275A",
        "meta_epoch": "2025-12-12T20:43:30.984384",
        "meta_mean_motion": 15.49550036,
        "meta_eccentricity": 0.00032451,
        "meta_inclination": 51.6304,
        "meta_ra_of_asc_node": 141.8664,
        "meta_arg_of_pericenter": 240.6311,
        "meta_mean_anomaly": 119.4354,
        "meta_ephemeris_type": 0,
        "meta_classification_type": "U",
        "meta_norad_cat_id": 66664,
        "meta_element_set_no": 999,
        "meta_rev_at_epoch": 128,
        "meta_bstar": 0.00025741225,
        "meta_mean_motion_dot": 0.00014033,
        "meta_mean_motion_ddot": 0,
        "tle_line1": "1 66664U 25275A   25346.86355306  .00014033  00000+0  25741-3 0  9997",
        "tle_line2": "2 66664  51.6304 141.8664 0003245 240.6311 119.4354 15.49550036  1286"
      },
      "geometry": {
        "type": "Point",
        "coordinates": [
          110.29136898165997,
          -30.728426977991273
        ]
      }
    },
    {
      "type": "Feature",
      "properties": {
        "norad_id": 66906,
        "name": "1998-067XS",
        "group": "stations",
        "lat": -6.357528007149342,
        "lon": 133.25567078340282,
        "alt_km": 418.4671006061435,
        "timestamp": "2025-12-13T13:34:33.887451+00:00",
        "meta_object_name": "1998-067XS",
        "meta_object_id": "1998-067XS",
        "meta_epoch": "2025-12-12T17:30:10.785600",
        "meta_mean_motion": 15.50562979,
        "meta_eccentricity": 0.00036025,
        "meta_inclination": 51.6293,
        "meta_ra_of_asc_node": 142.4703,
        "meta_arg_of_pericenter": 202.1444,
        "meta_mean_anomaly": 157.939,
        "meta_ephemeris_type": 0,
        "meta_classification_type": "U",
        "meta_norad_cat_id": 66906,
        "meta_element_set_no": 999,
        "meta_rev_at_epoch": 161,
        "meta_bstar": 0.00063717141,
        "meta_mean_motion_dot": 0.00036816,
        "meta_mean_motion_ddot": 0,
        "tle_line1": "1 66906U 98067XS  25346.72929150  .00036816  00000+0  63717-3 0  9992",
        "tle_line2": "2 66906  51.6293 142.4703 0003602 202.1444 157.9390 15.50562979  1615"
      },
      "geometry": {
        "type": "Point",
        "coordinates": [
          133.25567078340282,
          -6.357528007149342
        ]
      }
    },
    {
      "type": "Feature",
      "properties": {
        "norad_id": 66907,
        "name": "1998-067XT",
        "group": "stations",
        "lat": 7.6747043267518675,
        "lon": 144.41277158991596,
        "alt_km": 414.1155830166572,
        "timestamp": "2025-12-13T13:34:33.887460+00:00",
        "meta_object_name": "1998-067XT",
        "meta_object_id": "1998-067XT",
        "meta_epoch": "2025-12-12T17:26:16.026432",
        "meta_mean_motion": 15.5143678,
        "meta_eccentricity": 0.00044769,
        "meta_inclination": 51.6298,
        "meta_ra_of_asc_node": 142.4529,
        "meta_arg_of_pericenter": 226.787,
        "meta_mean_anomaly": 133.2746,
        "meta_ephemeris_type": 0,
        "meta_classification_type": "U",
        "meta_norad_cat_id": 66907,
        "meta_element_set_no": 999,
        "meta_rev_at_epoch": 161,
        "meta_bstar": 0.0013978666,
        "meta_mean_motion_dot": 0.0008442,
        "meta_mean_motion_ddot": 0,
        "tle_line1": "1 66907U 98067XT  25346.72657438  .00084420  00000+0  13979-2 0  9998",
        "tle_line2": "2 66907  51.6298 142.4529 0004476 226.7870 133.2746 15.51436780  1615"
      },
      "geometry": {
        "type": "Point",
        "coordinates": [
          144.41277158991596,
          7.6747043267518675
        ]
      }
    },
    {
      "type": "Feature",
      "properties": {
        "norad_id": 66908,
        "name": "1998-067XU",
        "group": "stations",
        "lat": 9.320098578486856,
        "lon": 145.75055472027165,
        "alt_km": 413.748753497317,
        "timestamp": "2025-12-13T13:34:33.887469+00:00",
        "meta_object_name": "1998-067XU",
        "meta_object_id": "1998-067XU",
        "meta_epoch": "2025-12-12T22:04:02.533728",
        "meta_mean_motion": 15.51556229,
        "meta_eccentricity": 0.0004575,
        "meta_inclination": 51.6297,
        "meta_ra_of_asc_node": 141.4904,
        "meta_arg_of_pericenter": 226.416,
        "meta_mean_anomaly": 133.645,
        "meta_ephemeris_type": 0,
        "meta_classification_type": "U",
        "meta_norad_cat_id": 66908,
        "meta_element_set_no": 999,
        "meta_rev_at_epoch": 164,
        "meta_bstar": 0.0015461789,
        "meta_mean_motion_dot": 0.00093943,
        "meta_mean_motion_ddot": 0,
        "tle_line1": "1 66908U 98067XU  25346.91947377  .00093943  00000+0  15462-2 0  9993",
        "tle_line2": "2 66908  51.6297 141.4904 0004575 226.4160 133.6450 15.51556229  1640"
      },
      "geometry": {
        "type": "Point",
        "coordinates": [
          145.75055472027165,
          9.320098578486856
        ]
      }
    }
  ]
}